{"type": "FeatureCollection", "features": [ {"type": "Feature", "properties": {"norad_id": 43623, "name": "BEIDOU-3 M14 (C33)", "group": "beidou", "lat": 33.0027158772728, "lon": -136.51547121516273, "alt_km": 21532.827079147883, "timestamp": "2025-12-08T10:52:03.212850+00:00", "meta": {"OBJECT_NAME": "BEIDOU-3 M14 (C33)", "OBJECT_ID": "2018-072B", "EPOCH": "2025-12-07T04:06:42.144768", "MEAN_MOTION": 1.86230742, "ECCENTRICITY": 0.00032284, "INCLINATION": 56.456, "RA_OF_ASC_NODE": 68.9987, "ARG_OF_PERICENTER": 333.0096, "MEAN_ANOMALY": 26.9917, "EPHEMERIS_TYPE": 0, "CLASSIFICATION_TYPE": "U", "NORAD_CAT_ID": 43623, "ELEMENT_SET_NO": 999, "REV_AT_EPOCH": 4907, "BSTAR": 0, "MEAN_MOTION_DOT": -4.5e-07, "MEAN_MOTION_DDOT": 0}, "tle": {"line1": "1 43623U 18072B   25341.17132112 -.00000045  00000+0  00000+0 0  9997", "line2": "2 43623  56.4560  68.9987 0003228 333.0096  26.9917  1.86230742 49079"}}, "geometry": {"type": "Point", "coordinates": [-136.51547121516273, 33.0027158772728]}}, {"type": "Feature", "properties": {"norad_id": 43647, "name": "BEIDOU-3 M16 (C35)", "group": "beidou", "lat": 26.518830961428247, "lon": -32.3123609752043, "alt_km": 21505.379462759607, "timestamp": "2025-12-08T10:52:03.212862+00:00", "meta": {"OBJECT_NAME": "BEIDOU-3 M16 (C35)", "OBJECT_ID": "2018-078A", "EPOCH": "2025-12-07T07:54:04.576896", "MEAN_MOTION": 1.86232109, "ECCENTRICITY": 0.00071609, "INCLINATION": 54.2671, "RA_OF_ASC_NODE": 306.7103, "ARG_OF_PERICENTER": 19.0723, "MEAN_ANOMALY": 340.9397, "EPHEMERIS_TYPE": 0, "CLASSIFICATION_TYPE": "U", "NORAD_CAT_ID": 43647, "ELEMENT_SET_NO": 999, "REV_AT_EPOCH": 4858, "BSTAR": 0, "MEAN_MOTION_DOT": -7e-07, "MEAN_MOTION_DDOT": 0}, "tle": {"line1": "1 43647U 18078A   25341.32921964 -.00000070  00000+0  00000+0 0  9995", "line2": "2 43647  54.2671 306.7103 0007160  19.0723 340.9397  1.86232109 48589"}}, "geometry": {"type": "Point", "coordinates": [-32.3123609752043, 26.518830961428247]}}, {"type": "Feature", "properties": {"norad_id": 43648, "name": "BEIDOU-3 M15 (C34)", "group": "beidou", "lat": -40.62388654027287, "lon": -91.46251647513128, "alt_km": 21529.414543960134, "timestamp": "2025-12-08T10:52:03.212874+00:00", "meta": {"OBJECT_NAME": "BEIDOU-3 M15 (C34)", "OBJECT_ID": "2018-078B", "EPOCH": "2025-12-05T07:27:18.667008", "MEAN_MOTION": 1.86231965, "ECCENTRICITY": 0.00036856, "INCLINATION": 54.2646, "RA_OF_ASC_NODE": 306.7819, "ARG_OF_PERICENTER": 17.7509, "MEAN_ANOMALY": 342.2442, "EPHEMERIS_TYPE": 0, "CLASSIFICATION_TYPE": "U", "NORAD_CAT_ID": 43648, "ELEMENT_SET_NO": 999, "REV_AT_EPOCH": 4856, "BSTAR": 0, "MEAN_MOTION_DOT": -6.9e-07, "MEAN_MOTION_DDOT": 0}, "tle": {"line1": "1 43648U 18078B   25339.31063272 -.00000069  00000+0  00000+0 0  9999", "line2": "2 43648  54.2646 306.7819 0003685  17.7509 342.2442  1.86231965 48564"}}, "geometry": {"type": "Point", "coordinates": [-91.46251647513128, -40.62388654027287]}}, {"type": "Feature", "properties": {"norad_id": 43683, "name": "BEIDOU-3 G1 (C59)", "group": "beidou", "lat": -2.561383576906782, "lon": 20.538145041173617, "alt_km": 35792.70154755237, "timestamp": "2025-12-08T10:52:03.212886+00:00", "meta": {"OBJECT_NAME": "BEIDOU-3 G1 (C59)", "OBJECT_ID": "2018-085A", "EPOCH": "2025-12-07T22:51:34.164864", "MEAN_MOTION": 1.00272268, "ECCENTRICITY": 0.00018224, "INCLINATION": 2.5954, "RA_OF_ASC_NODE": 103.0854, "ARG_OF_PERICENTER": 63.7825, "MEAN_ANOMALY": 33.0599, "EPHEMERIS_TYPE": 0, "CLASSIFICATION_TYPE": "U", "NORAD_CAT_ID": 43683, "ELEMENT_SET_NO": 999, "REV_AT_EPOCH": 2614, "BSTAR": 0, "MEAN_MOTION_DOT": -2.75e-06, "MEAN_MOTION_DDOT": 0}, "tle": {"line1": "1 43683U 18085A   25341.95247876 -.00000275  00000+0  00000+0 0  9992", "line2": "2 43683   2.5954 103.0854 0001822  63.7825  33.0599  1.00272268 26146"}}, "geometry": {"type": "Point", "coordinates": [20.538145041173617, -2.561383576906782]}}, {"type": "Feature", "properties": {"norad_id": 43706, "name": "BEIDOU-3 M17 (C36)", "group": "beidou", "lat": -16.368843722159223, "lon": 21.02944106986485, "alt_km": 21535.527432436113, "timestamp": "2025-12-08T10:52:03.212898+00:00", "meta": {"OBJECT_NAME": "BEIDOU-3 M17 (C36)", "OBJECT_ID": "2018-093A", "EPOCH": "2025-12-03T14:10:37.280064", "MEAN_MOTION": 1.86228161, "ECCENTRICITY": 0.00063465, "INCLINATION": 54.1727, "RA_OF_ASC_NODE": 188.9327, "ARG_OF_PERICENTER": 306.3477, "MEAN_ANOMALY": 234.3147, "EPHEMERIS_TYPE": 0, "CLASSIFICATION_TYPE": "U", "NORAD_CAT_ID": 43706, "ELEMENT_SET_NO": 999, "REV_AT_EPOCH": 4789, "BSTAR": 0, "MEAN_MOTION_DOT": 1.14e-06, "MEAN_MOTION_DDOT": 0}, "tle": {"line1": "1 43706U 18093A   25337.59070926  .00000114  00000+0  00000+0 0  9993", "line2": "2 43706  54.1727 188.9327 0006346 306.3477 234.3147  1.86228161 47892"}}, "geometry": {"type": "Point", "coordinates": [21.02944106986485, -16.368843722159223]}}, {"type": "Feature", "properties": {"norad_id": 43707, "name": "BEIDOU-3 M18 (C37)", "group": "beidou", "lat": -48.13919010394777, "lon": 135.01390460539562, "alt_km": 21524.6640408481, "timestamp": "2025-12-08T10:52:03.212909+00:00", "meta": {"OBJECT_NAME": "BEIDOU-3 M18 (C37)", "OBJECT_ID": "2018-093B", "EPOCH": "2025-12-06T22:35:39.985728", "MEAN_MOTION": 1.86226513, "ECCENTRICITY": 0.00063709, "INCLINATION": 54.1733, "RA_OF_ASC_NODE": 188.8105, "ARG_OF_PERICENTER": 351.8977, "MEAN_ANOMALY": 8.1663, "EPHEMERIS_TYPE": 0, "CLASSIFICATION_TYPE": "U", "NORAD_CAT_ID": 43707, "ELEMENT_SET_NO": 999, "REV_AT_EPOCH": 4795, "BSTAR": 0, "MEAN_MOTION_DOT": 6.5e-07, "MEAN_MOTION_DDOT": 0}, "tle": {"line1": "1 43707U 18093B   25340.94143502  .00000065  00000+0  00000+0 0  9993", "line2": "2 43707  54.1733 188.8105 0006370 351.8977   8.1663  1.86226513 47956"}}, "geometry": {"type": "Point", "coordinates": [135.01390460539562, -48.13919010394777]}}, {"type": "Feature", "properties": {"norad_id": 44204, "name": "BEIDOU-3 IGSO-1 (C38)", "group": "beidou", "lat": -37.31979840098715, "lon": 11.740528427371396, "alt_km": 35804.14218520254, "timestamp": "2025-12-08T10:52:03.212921+00:00", "meta": {"OBJECT_NAME": "BEIDOU-3 IGSO-1 (C38)", "OBJECT_ID": "2019-023A", "EPOCH": "2025-11-19T14:15:02.708640", "MEAN_MOTION": 1.00252177, "ECCENTRICITY": 0.0026966, "INCLINATION": 58.4003, "RA_OF_ASC_NODE": 39.8168, "ARG_OF_PERICENTER": 221.2202, "MEAN_ANOMALY": 126.9723, "EPHEMERIS_TYPE": 0, "CLASSIFICATION_TYPE": "U", "NORAD_CAT_ID": 44204, "ELEMENT_SET_NO": 999, "REV_AT_EPOCH": 510, "BSTAR": 0, "MEAN_MOTION_DOT": -2.26e-06, "MEAN_MOTION_DDOT": 0}, "tle": {"line1": "1 44204U 19023A   25323.59378135 -.00000226  00000+0  00000+0 0  9994", "line2": "2 44204  58.4003  39.8168 0026966 221.2202 126.9723  1.00252177  5102"}}, "geometry": {"type": "Point", "coordinates": [11.740528427371396, -37.31979840098715]}}, {"type": "Feature", "properties": {"norad_id": 44231, "name": "BEIDOU-2 G8 (C01)", "group": "beidou", "lat": -1.2426962623249773, "lon": 25.105605388797887, "alt_km": 35766.42383068317, "timestamp": "2025-12-08T10:52:03.212936+00:00", "meta": {"OBJECT_NAME": "BEIDOU-2 G8 (C01)", "OBJECT_ID": "2019-027A", "EPOCH": "2025-12-07T22:52:56.534304", "MEAN_MOTION": 1.00269075, "ECCENTRICITY": 0.00085913, "INCLINATION": 1.6496, "RA_OF_ASC_NODE": 74.7187, "ARG_OF_PERICENTER": 255.3493, "MEAN_ANOMALY": 234.6834, "EPHEMERIS_TYPE": 0, "CLASSIFICATION_TYPE": "U", "NORAD_CAT_ID": 44231, "ELEMENT_SET_NO": 999, "REV_AT_EPOCH": 2416, "BSTAR": 0, "MEAN_MOTION_DOT": -2.45e-06, "MEAN_MOTION_DDOT": 0}, "tle": {"line1": "1 44231U 19027A   25341.95343211 -.00000245  00000+0  00000+0 0  9996", "line2": "2 44231   1.6496  74.7187 0008591 255.3493 234.6834  1.00269075 24163"}}, "geometry": {"type": "Point", "coordinates": [25.105605388797887, -1.2426962623249773]}}, {"type": "Feature", "properties": {"norad_id": 44337, "name": "BEIDOU-3 IGSO-2 (C39)", "group": "beidou", "lat": -15.896739945878286, "lon": -8.042538775404761, "alt_km": 35630.94080590781, "timestamp": "2025-12-08T10:52:03.212948+00:00", "meta": {"OBJECT_NAME": "BEIDOU-3 IGSO-2 (C39)", "OBJECT_ID": "2019-035A", "EPOCH": "2025-12-07T16:50:33.150912", "MEAN_MOTION": 1.002726, "ECCENTRICITY": 0.00374891, "INCLINATION": 55.2245, "RA_OF_ASC_NODE": 160.5453, "ARG_OF_PERICENTER": 202.4176, "MEAN_ANOMALY": 85.9349, "EPHEMERIS_TYPE": 0, "CLASSIFICATION_TYPE": "U", "NORAD_CAT_ID": 44337, "ELEMENT_SET_NO": 999, "REV_AT_EPOCH": 2374, "BSTAR": 0, "MEAN_MOTION_DOT": -7.8e-07, "MEAN_MOTION_DDOT": 0}, "tle": {"line1": "1 44337U 19035A   25341.70177258 -.00000078  00000+0  00000+0 0  9995", "line2": "2 44337  55.2245 160.5453 0037489 202.4176  85.9349  1.00272600 23745"}}, "geometry": {"type": "Point", "coordinates": [-8.042538775404761, -15.896739945878286]}}, {"type": "Feature", "properties": {"norad_id": 44542, "name": "BEIDOU-3 M24 (C46)", "group": "beidou", "lat": -47.76650654995372, "lon": 61.2949131931764, "alt_km": 21553.63683524542, "timestamp": "2025-12-08T10:52:03.212959+00:00", "meta": {"OBJECT_NAME": "BEIDOU-3 M24 (C46)", "OBJECT_ID": "2019-061A", "EPOCH": "2025-12-04T20:45:16.055424", "MEAN_MOTION": 1.86229249, "ECCENTRICITY": 0.00095755, "INCLINATION": 54.4001, "RA_OF_ASC_NODE": 189.282, "ARG_OF_PERICENTER": 24.0464, "MEAN_ANOMALY": 336.0883, "EPHEMERIS_TYPE": 0, "CLASSIFICATION_TYPE": "U", "NORAD_CAT_ID": 44542, "ELEMENT_SET_NO": 999, "REV_AT_EPOCH": 4217, "BSTAR": 0, "MEAN_MOTION_DOT": 9.8e-07, "MEAN_MOTION_DDOT": 0}, "tle": {"line1": "1 44542U 19061A   25338.86476916  .00000098  00000+0  00000+0 0  9999", "line2": "2 44542  54.4001 189.2820 0009575  24.0464 336.0883  1.86229249 42179"}}, "geometry": {"type": "Point", "coordinates": [61.2949131931764, -47.76650654995372]}}]}